{
  "type": "FeatureCollection",
  "features": [
    {
      "type": "Feature",
      "properties": {
        "norad_id": 34560,
        "name": "COSMOS 2251 DEB",
        "group": "cosmos-2251-debris",
        "lat": -39.45954197516355,
        "lon": 101.72807674927928,
        "alt_km": 664.2424302790196,
        "timestamp": "2025-12-26T11:25:45.585109+00:00",
        "meta_object_name": "COSMOS 2251 DEB",
        "meta_object_id": "1993-036UW",
        "meta_epoch": "2025-12-24T07:34:02.313120",
        "meta_mean_motion": 14.72425193,
        "meta_eccentricity": 0.0013752,
        "meta_inclination": 74.0175,
        "meta_ra_of_asc_node": 119.5828,
        "meta_arg_of_pericenter": 202.4766,
        "meta_mean_anomaly": 186.1612,
        "meta_ephemeris_type": 0,
        "meta_classification_type": "U",
        "meta_norad_cat_id": 34560,
        "meta_element_set_no": 999,
        "meta_rev_at_epoch": 88422,
        "meta_bstar": 0.0023419587,
        "meta_mean_motion_dot": 0.00014869,
        "meta_mean_motion_ddot": 0,
        "tle_line1": "1 34560U 93036UW  25358.31530455  .00014869  00000+0  23420-2 0  9998",
        "tle_line2": "2 34560  74.0175 119.5828 0013752 202.4766 186.1612 14.72425193884220"
      },
      "geometry": {
        "type": "Point",
        "coordinates": [
          101.72807674927928,
          -39.45954197516355
        ]
      }
    },
    {
      "type": "Feature",
      "properties": {
        "norad_id": 34563,
        "name": "COSMOS 2251 DEB",
        "group": "cosmos-2251-debris",
        "lat": -64.57394595254333,
        "lon": 35.083681360110674,
        "alt_km": 734.581681222342,
        "timestamp": "2025-12-26T11:25:45.585118+00:00",
        "meta_object_name": "COSMOS 2251 DEB",
        "meta_object_id": "1993-036UZ",
        "meta_epoch": "2025-12-25T21:33:00.217152",
        "meta_mean_motion": 14.46549981,
        "meta_eccentricity": 0.0013904,
        "meta_inclination": 74.0365,
        "meta_ra_of_asc_node": 179.1413,
        "meta_arg_of_pericenter": 272.5322,
        "meta_mean_anomaly": 207.098,
        "meta_ephemeris_type": 0,
        "meta_classification_type": "U",
        "meta_norad_cat_id": 34563,
        "meta_element_set_no": 999,
        "meta_rev_at_epoch": 88387,
        "meta_bstar": 0.00044523,
        "meta_mean_motion_dot": 1.579e-05,
        "meta_mean_motion_ddot": 0,
        "tle_line1": "1 34563U 93036UZ  25359.89791918  .00001579  00000+0  44523-3 0  9990",
        "tle_line2": "2 34563  74.0365 179.1413 0013904 272.5322 207.0980 14.46549981883875"
      },
      "geometry": {
        "type": "Point",
        "coordinates": [
          35.083681360110674,
          -64.57394595254333
        ]
      }
    },
    {
      "type": "Feature",
      "properties": {
        "norad_id": 34564,
        "name": "COSMOS 2251 DEB",
        "group": "cosmos-2251-debris",
        "lat": 70.68598738430806,
        "lon": -22.191769146426996,
        "alt_km": 760.5274727935539,
        "timestamp": "2025-12-26T11:25:45.585127+00:00",
        "meta_object_name": "COSMOS 2251 DEB",
        "meta_object_id": "1993-036VA",
        "meta_epoch": "2025-12-26T01:40:59.608704",
        "meta_mean_motion": 14.40711014,
        "meta_eccentricity": 0.0019468,
        "meta_inclination": 74.031,
        "meta_ra_of_asc_node": 213.3484,
        "meta_arg_of_pericenter": 315.3854,
        "meta_mean_anomaly": 200.1171,
        "meta_ephemeris_type": 0,
        "meta_classification_type": "U",
        "meta_norad_cat_id": 34564,
        "meta_element_set_no": 999,
        "meta_rev_at_epoch": 88198,
        "meta_bstar": 0.00021517,
        "meta_mean_motion_dot": 6.62e-06,
        "meta_mean_motion_ddot": 0,
        "tle_line1": "1 34564U 93036VA  25360.07013436  .00000662  00000+0  21517-3 0  9995",
        "tle_line2": "2 34564  74.0310 213.3484 0019468 315.3854 200.1171 14.40711014881980"
      },
      "geometry": {
        "type": "Point",
        "coordinates": [
          -22.191769146426996,
          70.68598738430806
        ]
      }
    },
    {
      "type": "Feature",
      "properties": {
        "norad_id": 34567,
        "name": "COSMOS 2251 DEB",
        "group": "cosmos-2251-debris",
        "lat": 40.521014022950986,
        "lon": 146.21454023322178,
        "alt_km": 858.4031075441881,
        "timestamp": "2025-12-26T11:25:45.585136+00:00",
        "meta_object_name": "COSMOS 2251 DEB",
        "meta_object_id": "1993-036VD",
        "meta_epoch": "2025-12-25T11:56:05.341056",
        "meta_mean_motion": 14.24030601,
        "meta_eccentricity": 0.0074042,
        "meta_inclination": 74.0413,
        "meta_ra_of_asc_node": 133.8191,
        "meta_arg_of_pericenter": 205.2893,
        "meta_mean_anomaly": 221.0469,
        "meta_ephemeris_type": 0,
        "meta_classification_type": "U",
        "meta_norad_cat_id": 34567,
        "meta_element_set_no": 999,
        "meta_rev_at_epoch": 87306,
        "meta_bstar": 0.00025621,
        "meta_mean_motion_dot": 5.8e-06,
        "meta_mean_motion_ddot": 0,
        "tle_line1": "1 34567U 93036VD  25359.49728404  .00000580  00000+0  25621-3 0  9999",
        "tle_line2": "2 34567  74.0413 133.8191 0074042 205.2893 221.0469 14.24030601873067"
      },
      "geometry": {
        "type": "Point",
        "coordinates": [
          146.21454023322178,
          40.521014022950986
        ]
      }
    },
    {
      "type": "Feature",
      "properties": {
        "norad_id": 34569,
        "name": "COSMOS 2251 DEB",
        "group": "cosmos-2251-debris",
        "lat": -60.136347779408176,
        "lon": 23.30195139380198,
        "alt_km": 860.9235337994342,
        "timestamp": "2025-12-26T11:25:45.585145+00:00",
        "meta_object_name": "COSMOS 2251 DEB",
        "meta_object_id": "1993-036VF",
        "meta_epoch": "2025-12-25T21:22:52.115808",
        "meta_mean_motion": 14.24783871,
        "meta_eccentricity": 0.0157902,
        "meta_inclination": 73.9893,
        "meta_ra_of_asc_node": 174.3555,
        "meta_arg_of_pericenter": 359.7357,
        "meta_mean_anomaly": 125.1709,
        "meta_ephemeris_type": 0,
        "meta_classification_type": "U",
        "meta_norad_cat_id": 34569,
        "meta_element_set_no": 999,
        "meta_rev_at_epoch": 87155,
        "meta_bstar": 0.0004339,
        "meta_mean_motion_dot": 1.125e-05,
        "meta_mean_motion_ddot": 0,
        "tle_line1": "1 34569U 93036VF  25359.89088097  .00001125  00000+0  43390-3 0  9991",
        "tle_line2": "2 34569  73.9893 174.3555 0157902 359.7357 125.1709 14.24783871871557"
      },
      "geometry": {
        "type": "Point",
        "coordinates": [
          23.30195139380198,
          -60.136347779408176
        ]
      }
    },
    {
      "type": "Feature",
      "properties": {
        "norad_id": 34570,
        "name": "COSMOS 2251 DEB",
        "group": "cosmos-2251-debris",
        "lat": 21.87231811983379,
        "lon": -158.97153419666714,
        "alt_km": 804.9304518579811,
        "timestamp": "2025-12-26T11:25:45.585154+00:00",
        "meta_object_name": "COSMOS 2251 DEB",
        "meta_object_id": "1993-036VG",
        "meta_epoch": "2025-12-25T13:10:11.389152",
        "meta_mean_motion": 13.99841179,
        "meta_eccentricity": 0.0190153,
        "meta_inclination": 73.9578,
        "meta_ra_of_asc_node": 196.0084,
        "meta_arg_of_pericenter": 75.6314,
        "meta_mean_anomaly": 316.795,
        "meta_ephemeris_type": 0,
        "meta_classification_type": "U",
        "meta_norad_cat_id": 34570,
        "meta_element_set_no": 999,
        "meta_rev_at_epoch": 85780,
        "meta_bstar": 0.00046738,
        "meta_mean_motion_dot": 7.78e-06,
        "meta_mean_motion_ddot": 0,
        "tle_line1": "1 34570U 93036VG  25359.54874293  .00000778  00000+0  46738-3 0  9998",
        "tle_line2": "2 34570  73.9578 196.0084 0190153  75.6314 316.7950 13.99841179857804"
      },
      "geometry": {
        "type": "Point",
        "coordinates": [
          -158.97153419666714,
          21.87231811983379
        ]
      }
    },
    {
      "type": "Feature",
      "properties": {
        "norad_id": 34571,
        "name": "COSMOS 2251 DEB",
        "group": "cosmos-2251-debris",
        "lat": 38.44382077118427,
        "lon": -36.442508317888716,
        "alt_km": 695.1504956295639,
        "timestamp": "2025-12-26T11:25:45.585163+00:00",
        "meta_object_name": "COSMOS 2251 DEB",
        "meta_object_id": "1993-036VH",
        "meta_epoch": "2025-12-24T20:40:26.923008",
        "meta_mean_motion": 14.49017935,
        "meta_eccentricity": 0.0064888,
        "meta_inclination": 74.0401,
        "meta_ra_of_asc_node": 159.7142,
        "meta_arg_of_pericenter": 192.1385,
        "meta_mean_anomaly": 167.8215,
        "meta_ephemeris_type": 0,
        "meta_classification_type": "U",
        "meta_norad_cat_id": 34571,
        "meta_element_set_no": 999,
        "meta_rev_at_epoch": 87469,
        "meta_bstar": 0.003002,
        "meta_mean_motion_dot": 0.00011689,
        "meta_mean_motion_ddot": 0,
        "tle_line1": "1 34571U 93036VH  25358.86142272  .00011689  00000+0  30020-2 0  9997",
        "tle_line2": "2 34571  74.0401 159.7142 0064888 192.1385 167.8215 14.49017935874697"
      },
      "geometry": {
        "type": "Point",
        "coordinates": [
          -36.442508317888716,
          38.44382077118427
        ]
      }
    }
  ]
}